[Satellite]
VERSION=1.1
NAME=SL-16 R/B
NICKNAME=SL-16 R/B
TLE1=1 16182U 85097B   20157.88159861  .00000057  00000-0  52802-4 0  9991
TLE2=2 16182  71.0020 245.8454 0009207 230.9783 249.5857 14.16250663789516
STATUS=0
